0 IRIDIUM 166
1 43570U 18061B   24025.58387090  .00000062  00000-0  15192-4 0  9998
2 43570  86.3931  61.8321 0001869  90.1558 269.9852 14.34217511288181
0 IRIDIUM 158
1 43571U 18061C   24025.62192450  .00000206  00000-0  66427-4 0  9995
2 43571  86.3931  61.8250 0002035  98.9541 261.1885 14.34217782288154
0 IRIDIUM 165
1 43572U 18061D   24025.64729724  .00000243  00000-0  79562-4 0  9993
2 43572  86.3934  61.8441 0001925  96.0716 264.0699 14.34217008288189
0 IRIDIUM 155
1 43573U 18061E   24025.60924082  .00000000  00000-0 -69184-5 0  9996
2 43573  86.3929  61.7723 0002094  83.6239 276.5195 14.34217761288147
0 IRIDIUM 154
1 43574U 18061F   24025.59021358  .00000374  00000-0  12648-3 0  9993
2 43574  86.3933  61.8712 0002350  91.0458 269.1007 14.34218817288191
0 IRIDIUM 163
1 43575U 18061G   24025.64094784  .00000491  00000-0  16841-3 0  9992
2 43575  86.3930  61.7924 0002290  92.4660 267.6798 14.34221222288178
0 IRIDIUM 156
1 43576U 18061H   24025.61558197  .00000552  00000-0  19005-3 0  9996
2 43576  86.3930  61.8093 0001924  93.5136 266.6280 14.34217464288167
0 IRIDIUM 164
1 43577U 18061J   24025.59655424  .00000081  00000-0  21721-4 0  9991
2 43577  86.3932  61.8438 0002132  98.7300 261.4137 14.34216462288201
